NORAD_CAT_ID,OBJECT_NAME,OBJECT_TYPE,EPOCH,MEAN_MOTION,ECCENTRICITY,INCLINATION,RA_OF_ASC_NODE,ARG_OF_PERICENTER,MEAN_ANOMALY,BSTAR,MEAN_MOTION_DOT,MEAN_MOTION_DDOT,TLE_LINE0,TLE_LINE1,TLE_LINE2,SEMIMAJOR_AXIS,PERIOD,APOGEE,PERIGEE,DECAYED
54076.0,STARLINK-5201,PAYLOAD,2023-10-26 05:18:49,15.08841712,0.0001695,53.2172,268.9356,93.43,266.6886,0.00013198,1.813e-05,0.0,0 STARLINK-5201,1 54076U 22136AB  23299.22140159  .00001813  00000-0  13198-3 0  9993,2 54076  53.2172 268.9356 0001695  93.4300 266.6886 15.08841712 56676,6917.875,95.437,540.913,538.568,0.0
54076.0,STARLINK-5201,PAYLOAD,2023-10-26 08:29:35,15.0884306,0.00017,53.2169,268.3398,89.9957,270.123,0.00016786,2.385e-05,0.0,0 STARLINK-5201,1 54076U 22136AB  23299.35388048  .00002385  00000-0  16786-3 0  9999,2 54076  53.2169 268.3398 0001700  89.9957 270.1230 15.08843060 56218,6917.871,95.437,540.912,538.56,0.0
54076.0,STARLINK-5201,PAYLOAD,2023-10-27 06:44:58,15.08858061,0.0001694,53.2166,264.1773,94.7787,265.3398,0.00039446,5.998e-05,0.0,0 STARLINK-5201,1 54076U 22136AB  23300.28123282  .00005998  00000-0  39446-3 0  9992,2 54076  53.2166 264.1773 0001694  94.7787 265.3398 15.08858061 56839,6917.825,95.436,540.862,538.518,0.0
54076.0,STARLINK-5201,PAYLOAD,2023-10-27 14:41:54,15.08839058,0.0001589,53.2164,262.6893,80.4202,279.697,3.4666e-07,-2.83e-06,0.0,0 STARLINK-5201,1 54076U 22136AB  23300.61243733 -.00000283  00000-0  34666-6 0  9998,2 54076  53.2164 262.6893 0001589  80.4202 279.6970 15.08839058 56884,6917.883,95.438,540.848,538.649,0.0
54076.0,STARLINK-5201,PAYLOAD,2023-10-28 06:35:46,15.08832512,0.0001854,53.2165,259.7156,80.2141,279.906,-3.3855e-05,-8.27e-06,0.0,0 STARLINK-5201,1 54076U 22136AB  23301.27484511 -.00000827  00000-0 -33855-4 0  9994,2 54076  53.2165 259.7156 0001854  80.2141 279.9060 15.08832512 56981,6917.903,95.438,541.051,538.486,0.0
54076.0,STARLINK-5201,PAYLOAD,2023-10-28 14:32:42,15.0883662,0.0001621,53.2161,258.2289,87.4597,272.6581,3.7838e-05,3.14e-06,0.0,0 STARLINK-5201,1 54076U 22136AB  23301.60604419  .00000314  00000-0  37838-4 0  9996,2 54076  53.2161 258.2289 0001621  87.4597 272.6581 15.08836620 56559,6917.891,95.438,540.877,538.634,0.0
54076.0,STARLINK-5201,PAYLOAD,2023-10-29 04:51:10,15.08855287,0.0001747,53.2162,255.5522,85.7027,274.4165,0.00056514,8.721e-05,0.0,0 STARLINK-5201,1 54076U 22136AB  23302.20220056  .00008721  00000-0  56514-3 0  9995,2 54076  53.2162 255.5522 0001747  85.7027 274.4165 15.08855287 57120,6917.834,95.437,540.907,538.49,0.0
54076.0,STARLINK-5201,PAYLOAD,2023-10-29 14:23:29,15.08846276,0.0001713,53.2172,253.7677,90.289,269.8299,0.0003171,4.763e-05,0.0,0 STARLINK-5201,1 54076U 22136AB  23302.59964273  .00004763  00000-0  31710-3 0  9996,2 54076  53.2172 253.7677 0001713  90.2890 269.8299 15.08846276 56701,6917.861,95.437,540.911,538.541,0.0
54076.0,STARLINK-5201,PAYLOAD,2023-10-29 20:45:01,15.08849111,0.0002433,53.2156,252.5811,79.6989,280.4278,0.00048205,7.394e-05,0.0,0 STARLINK-5201,1 54076U 22136AB  23302.86460563  .00007394  00000-0  48205-3 0  9999,2 54076  53.2156 252.5811 0002433  79.6989 280.4278 15.08849111 57225,6917.853,95.437,541.401,538.034,0.0
54076.0,STARLINK-5201,PAYLOAD,2023-10-30 14:14:16,15.08834878,0.00017,53.2181,249.3079,84.3279,275.7907,0.00038608,5.861e-05,0.0,0 STARLINK-5201,1 54076U 22136AB  23303.59324990  .00005861  00000-0  38608-3 0  9996,2 54076  53.2181 249.3079 0001700  84.3279 275.7907 15.08834878 57336,6917.896,95.438,540.937,538.585,0.0
54076.0,STARLINK-5201,PAYLOAD,2023-10-31 02:57:22,15.08843201,0.0001585,53.2182,246.9299,87.2689,272.8485,0.00082135,0.00012809,0.0,0 STARLINK-5201,1 54076U 22136AB  23304.12317271  .00012809  00000-0  82135-3 0  9994,2 54076  53.2182 246.9299 0001585  87.2689 272.8485 15.08843201 56936,6917.871,95.437,540.832,538.639,0.0
54076.0,STARLINK-5201,PAYLOAD,2023-10-31 20:26:36,15.08846862,0.0001536,53.2177,243.659,87.4426,272.6742,0.00065597,0.00010169,0.0,0 STARLINK-5201,1 54076U 22136AB  23304.85181368  .00010169  00000-0  65597-3 0  9990,2 54076  53.2177 243.6590 0001536  87.4426 272.6742 15.08846862 57521,6917.859,95.437,540.787,538.662,0.0
54076.0,STARLINK-5201,PAYLOAD,2023-11-01 05:58:55,15.08860995,0.000145,53.2173,241.8734,88.922,271.1939,0.00083569,0.00013045,0.0,0 STARLINK-5201,1 54076U 22136AB  23305.24924840  .00013045  00000-0  83569-3 0  9999,2 54076  53.2173 241.8734 0001450  88.9220 271.1939 15.08860995 57109,6917.816,95.436,540.684,538.678,0.0
54076.0,STARLINK-5201,PAYLOAD,2023-11-01 20:17:23,15.0884923,0.0001639,53.2173,239.199,84.4247,275.6932,0.00026,3.853e-05,0.0,0 STARLINK-5201,1 54076U 22136AB  23305.84540909  .00003853  00000-0  26000-3 0  9998,2 54076  53.2173 239.1990 0001639  84.4247 275.6932 15.08849230 57675,6917.852,95.437,540.851,538.583,0.0
54076.0,STARLINK-5201,PAYLOAD,2023-11-02 12:11:14,15.08847507,0.0001343,53.2174,236.2262,84.929,275.1855,0.0003821,5.8e-05,0.0,0 STARLINK-5201,1 54076U 22136AB  23306.50780800  .00005800  00000-0  38210-3 0  9998,2 54076  53.2174 236.2262 0001343  84.9290 275.1855 15.08847507 57293,6917.857,95.437,540.652,538.793,0.0
54076.0,STARLINK-5201,PAYLOAD,2023-11-03 12:02:01,15.08852677,0.0001509,53.217,231.7649,84.1884,275.928,0.00070782,0.00010999,0.0,0 STARLINK-5201,1 54076U 22136AB  23307.50140601  .00010999  00000-0  70782-3 0  9993,2 54076  53.2170 231.7649 0001509  84.1884 275.9280 15.08852677 57444,6917.842,95.437,540.751,538.663,0.0
54076.0,STARLINK-5201,PAYLOAD,2023-11-04 03:55:52,15.08847584,0.0001342,53.2164,228.7908,99.5842,260.5302,0.00026257,3.894e-05,0.0,0 STARLINK-5201,1 54076U 22136AB  23308.16380629  .00003894  00000-0  26257-3 0  9996,2 54076  53.2164 228.7908 0001342  99.5842 260.5302 15.08847584 58021,6917.857,95.437,540.651,538.794,0.0
54076.0,STARLINK-5201,PAYLOAD,2023-11-05 03:46:40,15.08859363,0.0001405,53.2164,224.3324,106.2935,253.8212,0.00068599,0.00010652,0.0,0 STARLINK-5201,1 54076U 22136AB  23309.15740880  .00010652  00000-0  68599-3 0  9990,2 54076  53.2164 224.3324 0001405 106.2935 253.8212 15.08859363 58173,6917.821,95.436,540.658,538.714,0.0
54076.0,STARLINK-5201,PAYLOAD,2023-11-05 11:43:36,15.08848071,0.0001903,53.2167,222.8448,84.3386,275.7823,0.00041704,6.357e-05,0.0,0 STARLINK-5201,1 54076U 22136AB  23309.48861264  .00006357  00000-0  41704-3 0  9992,2 54076  53.2167 222.8448 0001903  84.3386 275.7823 15.08848071 58226,6917.856,95.437,541.037,538.404,0.0
54076.0,STARLINK-5201,PAYLOAD,2023-11-05 22:51:16,15.08878279,0.0001815,53.2175,220.7635,74.6208,285.4985,0.00096608,0.00015137,0.0,0 STARLINK-5201,1 54076U 22136AB  23309.95227932  .00015137  00000-0  96608-3 0  9991,2 54076  53.2175 220.7635 0001815  74.6208 285.4985 15.08878279 57811,6917.763,95.435,540.884,538.373,0.0
54076.0,STARLINK-5201,PAYLOAD,2023-11-06 03:37:25,15.08909719,0.0001776,53.2173,219.8685,101.7971,258.322,0.0018263,0.00028953,0.0,0 STARLINK-5201,1 54076U 22136AB  23310.15098479  .00028953  00000-0  18263-2 0  9997,2 54076  53.2173 219.8685 0001776 101.7971 258.3220 15.08909719 58320,6917.667,95.433,540.761,538.304,0.0
54076.0,STARLINK-5201,PAYLOAD,2023-11-06 11:34:20,15.08874487,0.0001796,53.2175,218.3833,103.7575,256.3617,0.000464,7.111e-05,0.0,0 STARLINK-5201,1 54076U 22136AB  23310.48218552  .00007111  00000-0  46400-3 0  9997,2 54076  53.2175 218.3833 0001796 103.7575 256.3617 15.08874487 58371,6917.775,95.435,540.882,538.398,0.0
54076.0,STARLINK-5201,PAYLOAD,2023-11-07 00:17:26,15.08832527,0.0002042,53.2187,216.0071,91.6362,268.4864,-0.00076558,-0.0001245,0.0,0 STARLINK-5201,1 54076U 22136AB  23311.01211405 -.00012450  00000-0 -76558-3 0  9998,2 54076  53.2187 216.0071 0002042  91.6362 268.4864 15.08832527 58453,6917.903,95.438,541.181,538.356,0.0
54076.0,STARLINK-5201,PAYLOAD,2023-11-07 11:25:09,15.0880221,0.000112,53.2177,213.9233,108.3706,251.7408,-0.00099294,-0.00016039,0.0,0 STARLINK-5201,1 54076U 22136AB  23311.47580715 -.00016039  00000-0 -99294-3 0  9990,2 54076  53.2177 213.9233 0001120 108.3706 251.7408 15.08802210 58525,6917.996,95.44,540.636,539.086,0.0
54076.0,STARLINK-5201,PAYLOAD,2023-11-08 03:19:01,15.08828995,0.0001513,53.2171,210.9489,103.9757,256.1403,0.00084027,0.00013106,0.0,0 STARLINK-5201,1 54076U 22136AB  23312.13821709  .00013106  00000-0  84027-3 0  9993,2 54076  53.2171 210.9489 0001513 103.9757 256.1403 15.08828995 58625,6917.914,95.438,540.826,538.732,0.0
54076.0,STARLINK-5201,PAYLOAD,2023-11-08 22:23:40,15.08838928,0.0001728,53.2169,207.3798,108.7081,251.4099,0.0006256,9.682e-05,0.0,0 STARLINK-5201,1 54076U 22136AB  23312.93310189  .00009682  00000-0  62560-3 0  9998,2 54076  53.2169 207.3798 0001728 108.7081 251.4099 15.08838928 58262,6917.884,95.438,540.944,538.553,0.0
54076.0,STARLINK-5201,PAYLOAD,2023-11-08 23:59:02,15.08860697,0.0001344,53.217,207.0846,103.0279,257.0863,0.0011976,0.00018834,0.0,0 STARLINK-5201,1 54076U 22136AB  23312.99933691  .00018834  00000-0  11976-2 0  9996,2 54076  53.2170 207.0846 0001344 103.0279 257.0863 15.08860697 58276,6917.817,95.436,540.612,538.752,0.0
54076.0,STARLINK-5201,PAYLOAD,2023-11-09 22:14:26,15.08845579,0.0001534,53.217,202.9234,107.0293,253.0867,0.00020579,2.989e-05,0.0,0 STARLINK-5201,1 54076U 22136AB  23313.92670000  .00002989  00000-0  20579-3 0  9996,2 54076  53.2170 202.9234 0001534 107.0293 253.0867 15.08845579 58410,6917.863,95.437,540.79,538.667,0.0
54076.0,STARLINK-5201,PAYLOAD,2023-11-09 23:49:50,15.0884558,0.0001433,53.2163,202.6229,91.6162,268.4994,0.00024762,3.656e-05,0.0,0 STARLINK-5201,1 54076U 22136AB  23313.99293984  .00003656  00000-0  24762-3 0  9995,2 54076  53.2163 202.6229 0001433  91.6162 268.4994 15.08845580 58901,6917.863,95.437,540.72,538.737,0.0
54076.0,STARLINK-5201,PAYLOAD,2023-11-10 09:22:08,15.08839726,0.0001494,53.2166,200.8408,97.9537,262.1625,0.00011637,1.565e-05,0.0,0 STARLINK-5201,1 54076U 22136AB  23314.39038125  .00001565  00000-0  11637-3 0  9998,2 54076  53.2166 200.8408 0001494  97.9537 262.1625 15.08839726 58485,6917.881,95.438,540.78,538.713,0.0
